{
  "type": "FeatureCollection",
  "name": "lyg_boundary_schematic_counties",
  "crs": {
    "type": "name",
    "properties": {
      "name": "EPSG:4326"
    }
  },
  "features": [
    {
      "type": "Feature",
      "properties": {
        "name": "东海县",
        "city": "连云港市"
      },
      "geometry": {
        "type": "Polygon",
        "coordinates": [
          [
            [
              118.4,
              34.45
            ],
            [
              118.95,
              34.45
            ],
            [
              118.95,
              34.85
            ],
            [
              118.68,
              34.92
            ],
            [
              118.42,
              34.8
            ],
            [
              118.35,
              34.6
            ],
            [
              118.4,
              34.45
            ]
          ]
        ]
      }
    },
    {
      "type": "Feature",
      "properties": {
        "name": "海州区",
        "city": "连云港市"
      },
      "geometry": {
        "type": "Polygon",
        "coordinates": [
          [
            [
              118.82,
              34.52
            ],
            [
              119.15,
              34.52
            ],
            [
              119.18,
              34.8
            ],
            [
              118.98,
              34.86
            ],
            [
              118.8,
              34.76
            ],
            [
              118.82,
              34.52
            ]
          ]
        ]
      }
    },
    {
      "type": "Feature",
      "properties": {
        "name": "赣榆区",
        "city": "连云港市"
      },
      "geometry": {
        "type": "Polygon",
        "coordinates": [
          [
            [
              119.05,
              34.78
            ],
            [
              119.75,
              34.78
            ],
            [
              119.78,
              35.15
            ],
            [
              119.52,
              35.18
            ],
            [
              119.2,
              35.05
            ],
            [
              119.05,
              34.78
            ]
          ]
        ]
      }
    },
    {
      "type": "Feature",
      "properties": {
        "name": "连云区",
        "city": "连云港市"
      },
      "geometry": {
        "type": "Polygon",
        "coordinates": [
          [
            [
              119.18,
              34.62
            ],
            [
              119.58,
              34.62
            ],
            [
              119.66,
              34.88
            ],
            [
              119.38,
              34.95
            ],
            [
              119.2,
              34.82
            ],
            [
              119.18,
              34.62
            ]
          ]
        ]
      }
    },
    {
      "type": "Feature",
      "properties": {
        "name": "灌云县",
        "city": "连云港市"
      },
      "geometry": {
        "type": "Polygon",
        "coordinates": [
          [
            [
              119.05,
              34.3
            ],
            [
              119.52,
              34.3
            ],
            [
              119.5,
              34.62
            ],
            [
              119.18,
              34.65
            ],
            [
              119.02,
              34.52
            ],
            [
              119.05,
              34.3
            ]
          ]
        ]
      }
    },
    {
      "type": "Feature",
      "properties": {
        "name": "灌南县",
        "city": "连云港市"
      },
      "geometry": {
        "type": "Polygon",
        "coordinates": [
          [
            [
              118.7,
              34.05
            ],
            [
              119.28,
              34.05
            ],
            [
              119.3,
              34.34
            ],
            [
              119.02,
              34.42
            ],
            [
              118.75,
              34.38
            ],
            [
              118.7,
              34.05
            ]
          ]
        ]
      }
    }
  ]
}